ONEWEB-0264             
1 48982U 21060R   24107.52397414  .00000075  00000+0  16162-3 0  9999
2 48982  87.9154  26.3606 0001758  78.9513 281.1816 13.16593001135425
ONEWEB-0266             
1 48984U 21060T   24107.46934787  .00000067  00000+0  14206-3 0  9992
2 48984  87.9152  26.3504 0001965  81.1639 278.9715 13.16597849136705
ONEWEB-0267             
1 48985U 21060U   24107.48042641  .00000031  00000+0  47036-4 0  9993
2 48985  87.9153  26.3494 0001450  78.2940 281.8354 13.16593026135418
ONEWEB-0268             
1 48986U 21060V   24107.52475710 -.00000215  00000+0 -59692-3 0  9992
2 48986  87.9149  26.3469 0001689  75.3903 284.7415 13.16594379135688
ONEWEB-0269             
1 48987U 21060W   24107.50576999  .00000048  00000+0  91353-4 0  9995
2 48987  87.9152  26.3744 0001934  76.6708 283.4639 13.16592703135457
ONEWEB-0270             
1 48988U 21060X   24107.52318275  .00000118  00000+0  27411-3 0  9990
2 48988  87.9148  26.3563 0001466  96.6970 263.4328 13.16592580135495
ONEWEB-0271             
1 48989U 21060Y   24107.51051769  .00000012  00000+0 -29295-5 0  9990
2 48989  87.9150  26.3347 0001445  85.4958 274.6338 13.16592716135494
ONEWEB-0272             
1 48990U 21060Z   24107.30469580  .00000078  00000+0  16961-3 0  9998
2 48990  87.9154  26.4031 0001526  80.4394 279.6909 13.16593747135416
